{"type": "Feature", "properties": {"hash": "acd936f166685f85", "number": "2369", "street": "PALISADES CREST DR", "unit": "", "city": "LAKE OSWEGO", "district": "", "region": "", "postcode": "97034", "id": ""}, "geometry": {"type": "Point", "coordinates": [-122.7001455, 45.3966246]}}
{"type": "Feature", "properties": {"hash": "6c6c7226dbe45d95", "number": "2371", "street": "PALISADES CREST DR", "unit": "", "city": "LAKE OSWEGO", "district": "", "region": "", "postcode": "97034", "id": ""}, "geometry": {"type": "Point", "coordinates": [-122.7006306, 45.3966097]}}
{"type": "Feature", "properties": {"hash": "a0bf805c45c84896", "number": "2383", "street": "PALISADES CREST DR", "unit": "", "city": "LAKE OSWEGO", "district": "", "region": "", "postcode": "97034", "id": ""}, "geometry": {"type": "Point", "coordinates": [-122.7010401, 45.3964751]}}
{"type": "Feature", "properties": {"hash": "97700f3a080ac6c7", "number": "17902", "street": "MEADOWLARK LN", "unit": "", "city": "LAKE OSWEGO", "district": "", "region": "", "postcode": "97034", "id": ""}, "geometry": {"type": "Point", "coordinates": [-122.696841, 45.396582]}}
{"type": "Feature", "properties": {"hash": "e69f70246b513f7a", "number": "2365", "street": "PALISADES CREST DR", "unit": "", "city": "LAKE OSWEGO", "district": "", "region": "", "postcode": "97034", "id": ""}, "geometry": {"type": "Point", "coordinates": [-122.6995422, 45.3965447]}}
{"type": "Feature", "properties": {"hash": "e3aa3a7e1a865811", "number": "1281", "street": "OVERLOOK DR", "unit": "", "city": "LAKE OSWEGO", "district": "", "region": "", "postcode": "97034", "id": ""}, "geometry": {"type": "Point", "coordinates": [-122.6964991, 45.3966121]}}
{"type": "Feature", "properties": {"hash": "6ea1029593f5831c", "number": "1271", "street": "OVERLOOK DR", "unit": "", "city": "LAKE OSWEGO", "district": "", "region": "", "postcode": "97034", "id": ""}, "geometry": {"type": "Point", "coordinates": [-122.6956599, 45.396279]}}
{"type": "Feature", "properties": {"hash": "0519261593d2c0ba", "number": "", "street": "NO SITUS", "unit": "", "city": "ADDRESS", "district": "", "region": "", "postcode": "0", "id": ""}, "geometry": {"type": "Point", "coordinates": [-122.6953587, 45.3957566]}}
{"type": "Feature", "properties": {"hash": "941724aeced47ae3", "number": "", "street": "NO SITUS", "unit": "", "city": "ADDRESS", "district": "", "region": "", "postcode": "0", "id": ""}, "geometry": {"type": "Point", "coordinates": [-122.692559, 45.3958244]}}
{"type": "Feature", "properties": {"hash": "198cde4a2389734d", "number": "17903", "street": "RIDGE LAKE DR", "unit": "", "city": "LAKE OSWEGO", "district": "", "region": "", "postcode": "97034", "id": ""}, "geometry": {"type": "Point", "coordinates": [-122.694756, 45.3966557]}}
{"type": "Feature", "properties": {"hash": "4fe8efe9df134fca", "number": "17898", "street": "HILLSIDE DR", "unit": "", "city": "LAKE OSWEGO", "district": "", "region": "", "postcode": "97034", "id": ""}, "geometry": {"type": "Point", "coordinates": [-122.7015091, 45.3963265]}}
{"type": "Feature", "properties": {"hash": "d12ebe487c810454", "number": "17800", "street": "STAFFORD RD", "unit": "", "city": "LAKE OSWEGO", "district": "", "region": "", "postcode": "97034", "id": ""}, "geometry": {"type": "Point", "coordinates": [-122.6869327, 45.3966]}}
{"type": "Feature", "properties": {"hash": "c6dc77132d00b5fb", "number": "2357", "street": "PALISADES CREST DR", "unit": "", "city": "LAKE OSWEGO", "district": "", "region": "", "postcode": "97034", "id": ""}, "geometry": {"type": "Point", "coordinates": [-122.6990635, 45.396416]}}
{"type": "Feature", "properties": {"hash": "c07fd671d488d89f", "number": "1200", "street": "OVERLOOK DR", "unit": "", "city": "LAKE OSWEGO", "district": "", "region": "", "postcode": "97034", "id": ""}, "geometry": {"type": "Point", "coordinates": [-122.6905868, 45.3965645]}}
{"type": "Feature", "properties": {"hash": "fbf427520d16e76c", "number": "17911", "street": "MEADOWLARK LN", "unit": "", "city": "LAKE OSWEGO", "district": "", "region": "", "postcode": "97034", "id": ""}, "geometry": {"type": "Point", "coordinates": [-122.6976712, 45.3964243]}}
{"type": "Feature", "properties": {"hash": "f37182ecec86d5b0", "number": "17901", "street": "STAFFORD RD", "unit": "", "city": "LAKE OSWEGO", "district": "", "region": "", "postcode": "97034", "id": ""}, "geometry": {"type": "Point", "coordinates": [-122.6889801, 45.3965286]}}
{"type": "Feature", "properties": {"hash": "d26275a34b233487", "number": "125", "street": "S ROSEMONT RD", "unit": "", "city": "WEST LINN", "district": "", "region": "", "postcode": "97068", "id": ""}, "geometry": {"type": "Point", "coordinates": [-122.6874286, 45.3940327]}}
{"type": "Feature", "properties": {"hash": "676c526fc6996377", "number": "", "street": "NO SITUS", "unit": "", "city": "ADDRESS", "district": "", "region": "", "postcode": "0", "id": ""}, "geometry": {"type": "Point", "coordinates": [-122.6864395, 45.3971933]}}
{"type": "Feature", "properties": {"hash": "e30c2d2441d3e0a0", "number": "2357", "street": "HILLSIDE LN", "unit": "", "city": "LAKE OSWEGO", "district": "", "region": "", "postcode": "97034", "id": ""}, "geometry": {"type": "Point", "coordinates": [-122.6994787, 45.3974291]}}
{"type": "Feature", "properties": {"hash": "a422dff08e940980", "number": "17835", "street": "HILLSIDE DR", "unit": "", "city": "LAKE OSWEGO", "district": "", "region": "", "postcode": "97034", "id": ""}, "geometry": {"type": "Point", "coordinates": [-122.7011869, 45.3973727]}}
{"type": "Feature", "properties": {"hash": "9fc1904c0de80108", "number": "2337", "street": "HILLSIDE LN", "unit": "", "city": "LAKE OSWEGO", "district": "", "region": "", "postcode": "97034", "id": ""}, "geometry": {"type": "Point", "coordinates": [-122.6989879, 45.3974165]}}
{"type": "Feature", "properties": {"hash": "350cefdff628d653", "number": "17784", "street": "TREE TOP LN", "unit": "", "city": "LAKE OSWEGO", "district": "", "region": "", "postcode": "97034", "id": ""}, "geometry": {"type": "Point", "coordinates": [-122.6968222, 45.3974304]}}
{"type": "Feature", "properties": {"hash": "cc4022724ba103ce", "number": "2301", "street": "HILLSIDE LN", "unit": "", "city": "LAKE OSWEGO", "district": "", "region": "", "postcode": "97034", "id": ""}, "geometry": {"type": "Point", "coordinates": [-122.6986352, 45.3972624]}}
{"type": "Feature", "properties": {"hash": "4a35f38e324742e6", "number": "17837", "street": "HILLSIDE DR", "unit": "", "city": "LAKE OSWEGO", "district": "", "region": "", "postcode": "97034", "id": ""}, "geometry": {"type": "Point", "coordinates": [-122.70159, 45.397247]}}
{"type": "Feature", "properties": {"hash": "4c075e18ea81feb7", "number": "2210", "street": "OVERLOOK DR", "unit": "", "city": "LAKE OSWEGO", "district": "", "region": "", "postcode": "97034", "id": ""}, "geometry": {"type": "Point", "coordinates": [-122.6981085, 45.3972365]}}
{"type": "Feature", "properties": {"hash": "484832173d0d6b74", "number": "17841", "street": "HILLSIDE DR", "unit": "", "city": "LAKE OSWEGO", "district": "", "region": "", "postcode": "97034", "id": ""}, "geometry": {"type": "Point", "coordinates": [-122.7019467, 45.3971365]}}
{"type": "Feature", "properties": {"hash": "423076db54700fd0", "number": "17846", "street": "HILLSIDE DR", "unit": "", "city": "LAKE OSWEGO", "district": "", "region": "", "postcode": "97034", "id": ""}, "geometry": {"type": "Point", "coordinates": [-122.7008405, 45.3969852]}}
{"type": "Feature", "properties": {"hash": "afbb79ad610792cf", "number": "2398", "street": "HILLSIDE LN", "unit": "", "city": "LAKE OSWEGO", "district": "", "region": "", "postcode": "97034", "id": ""}, "geometry": {"type": "Point", "coordinates": [-122.7004113, 45.3970124]}}
{"type": "Feature", "properties": {"hash": "346958c63484dfc7", "number": "17802", "street": "TREE TOP LN", "unit": "", "city": "LAKE OSWEGO", "district": "", "region": "", "postcode": "97034", "id": ""}, "geometry": {"type": "Point", "coordinates": [-122.6968249, 45.3971025]}}
{"type": "Feature", "properties": {"hash": "676c526fc6996377", "number": "", "street": "NO SITUS", "unit": "", "city": "ADDRESS", "district": "", "region": "", "postcode": "0", "id": ""}, "geometry": {"type": "Point", "coordinates": [-122.6864395, 45.3971933]}}
{"type": "Feature", "properties": {"hash": "a9f302f699f0d4a6", "number": "2378", "street": "HILLSIDE LN", "unit": "", "city": "LAKE OSWEGO", "district": "", "region": "", "postcode": "97034", "id": ""}, "geometry": {"type": "Point", "coordinates": [-122.6999749, 45.3970088]}}
{"type": "Feature", "properties": {"hash": "681007ac4581976c", "number": "2358", "street": "HILLSIDE LN", "unit": "", "city": "LAKE OSWEGO", "district": "", "region": "", "postcode": "97034", "id": ""}, "geometry": {"type": "Point", "coordinates": [-122.6995647, 45.3969964]}}
{"type": "Feature", "properties": {"hash": "e597680def22cb02", "number": "2401", "street": "MAYORS LN", "unit": "", "city": "LAKE OSWEGO", "district": "", "region": "", "postcode": "97034", "id": ""}, "geometry": {"type": "Point", "coordinates": [-122.7012246, 45.3970087]}}
{"type": "Feature", "properties": {"hash": "99ba0c056de09bda", "number": "2338", "street": "HILLSIDE LN", "unit": "", "city": "LAKE OSWEGO", "district": "", "region": "", "postcode": "97034", "id": ""}, "geometry": {"type": "Point", "coordinates": [-122.6991527, 45.3969511]}}
{"type": "Feature", "properties": {"hash": "4921178c85719332", "number": "", "street": "NO SITUS", "unit": "", "city": "ADDRESS", "district": "", "region": "", "postcode": "0", "id": ""}, "geometry": {"type": "Point", "coordinates": [-122.698689, 45.3970033]}}
{"type": "Feature", "properties": {"hash": "0c5bff8377838e82", "number": "17878", "street": "HILLSIDE DR", "unit": "", "city": "LAKE OSWEGO", "district": "", "region": "", "postcode": "97034", "id": ""}, "geometry": {"type": "Point", "coordinates": [-122.7015493, 45.3969461]}}
{"type": "Feature", "properties": {"hash": "553ccbc12d21197c", "number": "17878", "street": "HILLSIDE DR", "unit": "", "city": "LAKE OSWEGO", "district": "", "region": "", "postcode": "97034", "id": ""}, "geometry": {"type": "Point", "coordinates": [-122.7016308, 45.3966833]}}
{"type": "Feature", "properties": {"hash": "c1df29afd13b16ea", "number": "2401", "street": "MAYORS LN", "unit": "", "city": "LAKE OSWEGO", "district": "", "region": "", "postcode": "97034", "id": ""}, "geometry": {"type": "Point", "coordinates": [-122.7012614, 45.3967127]}}
{"type": "Feature", "properties": {"hash": "0a84fda83ad21699", "number": "17846", "street": "HILLSIDE DR", "unit": "", "city": "LAKE OSWEGO", "district": "", "region": "", "postcode": "97034", "id": ""}, "geometry": {"type": "Point", "coordinates": [-122.7007915, 45.3968478]}}
{"type": "Feature", "properties": {"hash": "98299e98ac895477", "number": "2398", "street": "HILLSIDE LN", "unit": "", "city": "LAKE OSWEGO", "district": "", "region": "", "postcode": "97034", "id": ""}, "geometry": {"type": "Point", "coordinates": [-122.700488, 45.3968296]}}
{"type": "Feature", "properties": {"hash": "4e95ce7a4e4cbded", "number": "2378", "street": "HILLSIDE LN", "unit": "", "city": "LAKE OSWEGO", "district": "", "region": "", "postcode": "97034", "id": ""}, "geometry": {"type": "Point", "coordinates": [-122.6998831, 45.3968208]}}
{"type": "Feature", "properties": {"hash": "5e75111f25217cf9", "number": "2358", "street": "HILLSIDE LN", "unit": "", "city": "LAKE OSWEGO", "district": "", "region": "", "postcode": "97034", "id": ""}, "geometry": {"type": "Point", "coordinates": [-122.6995785, 45.396837]}}
{"type": "Feature", "properties": {"hash": "9a6300688e113d57", "number": "2338", "street": "HILLSIDE LN", "unit": "", "city": "LAKE OSWEGO", "district": "", "region": "", "postcode": "97034", "id": ""}, "geometry": {"type": "Point", "coordinates": [-122.6991304, 45.3968073]}}
{"type": "Feature", "properties": {"hash": "f2e21751a33e4b03", "number": "2318", "street": "HILLSIDE LN", "unit": "", "city": "LAKE OSWEGO", "district": "", "region": "", "postcode": "97034", "id": ""}, "geometry": {"type": "Point", "coordinates": [-122.6987202, 45.3967948]}}
{"type": "Feature", "properties": {"hash": "88aedc4ff9183e91", "number": "2306", "street": "MAYORS LN", "unit": "", "city": "LAKE OSWEGO", "district": "", "region": "", "postcode": "97034", "id": ""}, "geometry": {"type": "Point", "coordinates": [-122.698531, 45.3965445]}}
{"type": "Feature", "properties": {"hash": "400f31c3c5c14eae", "number": "17901", "street": "MEADOWLARK LN", "unit": "", "city": "LAKE OSWEGO", "district": "", "region": "", "postcode": "97034", "id": ""}, "geometry": {"type": "Point", "coordinates": [-122.6977674, 45.3967045]}}
{"type": "Feature", "properties": {"hash": "84c73f063a9e18ec", "number": "", "street": "NO SITUS", "unit": "", "city": "ADDRESS", "district": "", "region": "", "postcode": "0", "id": ""}, "geometry": {"type": "Point", "coordinates": [-122.6442759, 45.3624903]}}
{"type": "Feature", "properties": {"hash": "04afdad738f659a6", "number": "3288", "street": "WILD ROSE LOOP", "unit": "", "city": "WEST LINN", "district": "", "region": "", "postcode": "97068", "id": ""}, "geometry": {"type": "Point", "coordinates": [-122.6442775, 45.3630533]}}
{"type": "Feature", "properties": {"hash": "bc8bec74cf41c1a2", "number": "21925", "street": "CHELAN LOOP", "unit": "", "city": "WEST LINN", "district": "", "region": "", "postcode": "97068", "id": ""}, "geometry": {"type": "Point", "coordinates": [-122.6453797, 45.3630339]}}
{"type": "Feature", "properties": {"hash": "a089d6b2897393f8", "number": "3676", "street": "WILD ROSE LOOP", "unit": "", "city": "WEST LINN", "district": "", "region": "", "postcode": "97068", "id": ""}, "geometry": {"type": "Point", "coordinates": [-122.6418496, 45.3631351]}}
{"type": "Feature", "properties": {"hash": "19d8989f2574daec", "number": "3239", "street": "JOURNEAY CT", "unit": "", "city": "WEST LINN", "district": "", "region": "", "postcode": "97068", "id": ""}, "geometry": {"type": "Point", "coordinates": [-122.642196, 45.3630993]}}
{"type": "Feature", "properties": {"hash": "7786191e8703ebf7", "number": "22025", "street": "CHELAN LOOP", "unit": "", "city": "WEST LINN", "district": "", "region": "", "postcode": "97068", "id": ""}, "geometry": {"type": "Point", "coordinates": [-122.6460222, 45.3630036]}}
{"type": "Feature", "properties": {"hash": "1b7087c3284abe57", "number": "3671", "street": "WILD ROSE LOOP", "unit": "", "city": "WEST LINN", "district": "", "region": "", "postcode": "97068", "id": ""}, "geometry": {"type": "Point", "coordinates": [-122.6413221, 45.3631431]}}
{"type": "Feature", "properties": {"hash": "74ead66c7f7f8639", "number": "3545", "street": "CHELAN DR", "unit": "", "city": "WEST LINN", "district": "", "region": "", "postcode": "97068", "id": ""}, "geometry": {"type": "Point", "coordinates": [-122.644758, 45.3629736]}}
{"type": "Feature", "properties": {"hash": "d18c0af8216825bb", "number": "3282", "street": "WILD ROSE LOOP", "unit": "", "city": "WEST LINN", "district": "", "region": "", "postcode": "97068", "id": ""}, "geometry": {"type": "Point", "coordinates": [-122.6440921, 45.3629812]}}
{"type": "Feature", "properties": {"hash": "f055990a640ad6e2", "number": "22035", "street": "CHELAN LOOP", "unit": "", "city": "WEST LINN", "district": "", "region": "", "postcode": "97068", "id": ""}, "geometry": {"type": "Point", "coordinates": [-122.6460837, 45.362918]}}
{"type": "Feature", "properties": {"hash": "da4aadb9f2e89374", "number": "3258", "street": "JOURNEAY CT", "unit": "", "city": "WEST LINN", "district": "", "region": "", "postcode": "97068", "id": ""}, "geometry": {"type": "Point", "coordinates": [-122.6429737, 45.3629915]}}
{"type": "Feature", "properties": {"hash": "e75cb80563a17065", "number": "3654", "street": "WILD ROSE LOOP", "unit": "", "city": "WEST LINN", "district": "", "region": "", "postcode": "97068", "id": ""}, "geometry": {"type": "Point", "coordinates": [-122.6418526, 45.3630057]}}
{"type": "Feature", "properties": {"hash": "47dd0186445a3384", "number": "3669", "street": "WILD ROSE LOOP", "unit": "", "city": "WEST LINN", "district": "", "region": "", "postcode": "97068", "id": ""}, "geometry": {"type": "Point", "coordinates": [-122.6413051, 45.3630194]}}
{"type": "Feature", "properties": {"hash": "ec1b8471472e969e", "number": "22880", "street": "WEST BLUFF DR BLDG JJ", "unit": "", "city": "WEST LINN", "district": "", "region": "", "postcode": "97068", "id": ""}, "geometry": {"type": "Point", "coordinates": [-122.6502136, 45.3626282]}}
{"type": "Feature", "properties": {"hash": "69423537bbdc5f15", "number": "3254", "street": "JOURNEAY CT", "unit": "", "city": "WEST LINN", "district": "", "region": "", "postcode": "97068", "id": ""}, "geometry": {"type": "Point", "coordinates": [-122.6428867, 45.3629231]}}
{"type": "Feature", "properties": {"hash": "7336b8c34f5924ab", "number": "3270", "street": "DAWSON CT", "unit": "", "city": "WEST LINN", "district": "", "region": "", "postcode": "97068", "id": ""}, "geometry": {"type": "Point", "coordinates": [-122.644337, 45.3628896]}}
{"type": "Feature", "properties": {"hash": "0bbdabccb8e7fd09", "number": "3235", "street": "JOURNEAY CT", "unit": "", "city": "WEST LINN", "district": "", "region": "", "postcode": "97068", "id": ""}, "geometry": {"type": "Point", "coordinates": [-122.6422261, 45.3629602]}}
{"type": "Feature", "properties": {"hash": "2cd142e6b0ef44fe", "number": "3630", "street": "WILD ROSE LOOP", "unit": "", "city": "WEST LINN", "district": "", "region": "", "postcode": "97068", "id": ""}, "geometry": {"type": "Point", "coordinates": [-122.6418989, 45.3629265]}}
{"type": "Feature", "properties": {"hash": "d1848971e02b09a0", "number": "22045", "street": "CHELAN LOOP", "unit": "", "city": "WEST LINN", "district": "", "region": "", "postcode": "97068", "id": ""}, "geometry": {"type": "Point", "coordinates": [-122.6461368, 45.3628406]}}
{"type": "Feature", "properties": {"hash": "55b87169a0f97b2f", "number": "3537", "street": "CHELAN DR", "unit": "", "city": "WEST LINN", "district": "", "region": "", "postcode": "97068", "id": ""}, "geometry": {"type": "Point", "coordinates": [-122.6448437, 45.3628205]}}
{"type": "Feature", "properties": {"hash": "6c40f00ac5101ce7", "number": "3657", "street": "WILD ROSE LOOP", "unit": "", "city": "WEST LINN", "district": "", "region": "", "postcode": "97068", "id": ""}, "geometry": {"type": "Point", "coordinates": [-122.6413309, 45.3629478]}}
{"type": "Feature", "properties": {"hash": "7f974d2a65ec0db6", "number": "3534", "street": "CHELAN DR", "unit": "", "city": "WEST LINN", "district": "", "region": "", "postcode": "97068", "id": ""}, "geometry": {"type": "Point", "coordinates": [-122.6455279, 45.3628083]}}
{"type": "Feature", "properties": {"hash": "54dc83f462963c7b", "number": "3246", "street": "JOURNEAY CT", "unit": "", "city": "WEST LINN", "district": "", "region": "", "postcode": "97068", "id": ""}, "geometry": {"type": "Point", "coordinates": [-122.642808, 45.3628623]}}
{"type": "Feature", "properties": {"hash": "98ed655e3c754bea", "number": "3253", "street": "WILD ROSE LOOP", "unit": "", "city": "WEST LINN", "district": "", "region": "", "postcode": "97068", "id": ""}, "geometry": {"type": "Point", "coordinates": [-122.6431857, 45.3628575]}}
{"type": "Feature", "properties": {"hash": "57592c5b332af5f7", "number": "22925", "street": "BLAND CIR", "unit": "", "city": "WEST LINN", "district": "", "region": "", "postcode": "97068", "id": ""}, "geometry": {"type": "Point", "coordinates": [-122.6539129, 45.3621043]}}
{"type": "Feature", "properties": {"hash": "472583cf6c45b3b9", "number": "3231", "street": "JOURNEAY CT", "unit": "", "city": "WEST LINN", "district": "", "region": "", "postcode": "97068", "id": ""}, "geometry": {"type": "Point", "coordinates": [-122.6422364, 45.3628239]}}
{"type": "Feature", "properties": {"hash": "3caaf1975e3084fb", "number": "22055", "street": "CHELAN LOOP", "unit": "", "city": "WEST LINN", "district": "", "region": "", "postcode": "97068", "id": ""}, "geometry": {"type": "Point", "coordinates": [-122.6461795, 45.3627642]}}
{"type": "Feature", "properties": {"hash": "ede2b9be91d58d20", "number": "3260", "street": "WILD ROSE LOOP", "unit": "", "city": "WEST LINN", "district": "", "region": "", "postcode": "97068", "id": ""}, "geometry": {"type": "Point", "coordinates": [-122.6437241, 45.3627591]}}
{"type": "Feature", "properties": {"hash": "b0824478bfeb257b", "number": "3622", "street": "WILD ROSE LOOP", "unit": "", "city": "WEST LINN", "district": "", "region": "", "postcode": "97068", "id": ""}, "geometry": {"type": "Point", "coordinates": [-122.641945, 45.3628509]}}
{"type": "Feature", "properties": {"hash": "dfcb9684498a8341", "number": "3645", "street": "WILD ROSE LOOP", "unit": "", "city": "WEST LINN", "district": "", "region": "", "postcode": "97068", "id": ""}, "geometry": {"type": "Point", "coordinates": [-122.6413455, 45.3628364]}}
{"type": "Feature", "properties": {"hash": "ea20d37167eb3bff", "number": "3240", "street": "JOURNEAY CT", "unit": "", "city": "WEST LINN", "district": "", "region": "", "postcode": "97068", "id": ""}, "geometry": {"type": "Point", "coordinates": [-122.6426996, 45.3628207]}}
{"type": "Feature", "properties": {"hash": "215061a06002c1c0", "number": "3228", "street": "JOURNEAY CT", "unit": "", "city": "WEST LINN", "district": "", "region": "", "postcode": "97068", "id": ""}, "geometry": {"type": "Point", "coordinates": [-122.642403, 45.3628117]}}
{"type": "Feature", "properties": {"hash": "b9f7b4cca686f456", "number": "22880", "street": "WEST BLUFF DR BLDG JJ", "unit": "", "city": "WEST LINN", "district": "", "region": "", "postcode": "97068", "id": ""}, "geometry": {"type": "Point", "coordinates": [-122.6515751, 45.361896]}}
{"type": "Feature", "properties": {"hash": "16b0afcbe32cb5a0", "number": "3249", "street": "WILD ROSE LOOP", "unit": "", "city": "WEST LINN", "district": "", "region": "", "postcode": "97068", "id": ""}, "geometry": {"type": "Point", "coordinates": [-122.6431204, 45.3627753]}}
{"type": "Feature", "properties": {"hash": "562c36b9d512b2cf", "number": "3232", "street": "JOURNEAY CT", "unit": "", "city": "WEST LINN", "district": "", "region": "", "postcode": "97068", "id": ""}, "geometry": {"type": "Point", "coordinates": [-122.6425509, 45.3627733]}}
{"type": "Feature", "properties": {"hash": "dd569d9cc5df19fb", "number": "22065", "street": "CHELAN LOOP", "unit": "", "city": "WEST LINN", "district": "", "region": "", "postcode": "97068", "id": ""}, "geometry": {"type": "Point", "coordinates": [-122.6462199, 45.3626919]}}
{"type": "Feature", "properties": {"hash": "54133b84363fb554", "number": "3618", "street": "WILD ROSE LOOP", "unit": "", "city": "WEST LINN", "district": "", "region": "", "postcode": "97068", "id": ""}, "geometry": {"type": "Point", "coordinates": [-122.6419668, 45.3627644]}}
{"type": "Feature", "properties": {"hash": "1d5a173b50ea714a", "number": "3528", "street": "CHELAN DR", "unit": "", "city": "WEST LINN", "district": "", "region": "", "postcode": "97068", "id": ""}, "geometry": {"type": "Point", "coordinates": [-122.6456136, 45.3626552]}}
{"type": "Feature", "properties": {"hash": "332e500ad0b2b6ca", "number": "3535", "street": "CHELAN DR", "unit": "", "city": "WEST LINN", "district": "", "region": "", "postcode": "97068", "id": ""}, "geometry": {"type": "Point", "coordinates": [-122.6449293, 45.3626674]}}
{"type": "Feature", "properties": {"hash": "82268a50aa6dde81", "number": "3633", "street": "WILD ROSE LOOP", "unit": "", "city": "WEST LINN", "district": "", "region": "", "postcode": "97068", "id": ""}, "geometry": {"type": "Point", "coordinates": [-122.6414289, 45.3627805]}}
{"type": "Feature", "properties": {"hash": "54de6e534a74df97", "number": "3268", "street": "DAWSON CT", "unit": "", "city": "WEST LINN", "district": "", "region": "", "postcode": "97068", "id": ""}, "geometry": {"type": "Point", "coordinates": [-122.6444353, 45.3626998]}}
{"type": "Feature", "properties": {"hash": "8d8251326711b572", "number": "3245", "street": "WILD ROSE LOOP", "unit": "", "city": "WEST LINN", "district": "", "region": "", "postcode": "97068", "id": ""}, "geometry": {"type": "Point", "coordinates": [-122.6430424, 45.3627141]}}
{"type": "Feature", "properties": {"hash": "d2877ddb19f53db0", "number": "3266", "street": "DAWSON CT", "unit": "", "city": "WEST LINN", "district": "", "region": "", "postcode": "97068", "id": ""}, "geometry": {"type": "Point", "coordinates": [-122.6442349, 45.3626638]}}
{"type": "Feature", "properties": {"hash": "b74a400371573ffe", "number": "3256", "street": "WILD ROSE LOOP", "unit": "", "city": "WEST LINN", "district": "", "region": "", "postcode": "97068", "id": ""}, "geometry": {"type": "Point", "coordinates": [-122.6436719, 45.3626666]}}
{"type": "Feature", "properties": {"hash": "5bd2ed567b2ca06d", "number": "3606", "street": "WILD ROSE LOOP", "unit": "", "city": "WEST LINN", "district": "", "region": "", "postcode": "97068", "id": ""}, "geometry": {"type": "Point", "coordinates": [-122.6420817, 45.3627033]}}
{"type": "Feature", "properties": {"hash": "45130588b11eaa88", "number": "22075", "street": "CHELAN LOOP", "unit": "", "city": "WEST LINN", "district": "", "region": "", "postcode": "97068", "id": ""}, "geometry": {"type": "Point", "coordinates": [-122.6462623, 45.3626161]}}
{"type": "Feature", "properties": {"hash": "df246da7f6f539b6", "number": "3621", "street": "WILD ROSE LOOP", "unit": "", "city": "WEST LINN", "district": "", "region": "", "postcode": "97068", "id": ""}, "geometry": {"type": "Point", "coordinates": [-122.641475, 45.3627049]}}
{"type": "Feature", "properties": {"hash": "24bf34b578ee007d", "number": "3241", "street": "WILD ROSE LOOP", "unit": "", "city": "WEST LINN", "district": "", "region": "", "postcode": "97068", "id": ""}, "geometry": {"type": "Point", "coordinates": [-122.642949, 45.3626602]}}
{"type": "Feature", "properties": {"hash": "432babe3063323a6", "number": "3264", "street": "DAWSON CT", "unit": "", "city": "WEST LINN", "district": "", "region": "", "postcode": "97068", "id": ""}, "geometry": {"type": "Point", "coordinates": [-122.6440545, 45.3626077]}}
{"type": "Feature", "properties": {"hash": "3eff11a1a5300d16", "number": "3262", "street": "DAWSON CT", "unit": "", "city": "WEST LINN", "district": "", "region": "", "postcode": "97068", "id": ""}, "geometry": {"type": "Point", "coordinates": [-122.6438292, 45.3625321]}}
{"type": "Feature", "properties": {"hash": "d8af097f5c649bd8", "number": "3600", "street": "WILD ROSE LOOP", "unit": "", "city": "WEST LINN", "district": "", "region": "", "postcode": "97068", "id": ""}, "geometry": {"type": "Point", "coordinates": [-122.6421792, 45.3626347]}}
{"type": "Feature", "properties": {"hash": "0acdf3c8909d4c58", "number": "22201", "street": "SKYVIEW DR", "unit": "", "city": "WEST LINN", "district": "", "region": "", "postcode": "97068", "id": ""}, "geometry": {"type": "Point", "coordinates": [-122.6491412, 45.3611643]}}
{"type": "Feature", "properties": {"hash": "4e1a1927b592dd35", "number": "3252", "street": "WILD ROSE LOOP", "unit": "", "city": "WEST LINN", "district": "", "region": "", "postcode": "97068", "id": ""}, "geometry": {"type": "Point", "coordinates": [-122.643594, 45.3626053]}}
{"type": "Feature", "properties": {"hash": "cde9ffecbcf0a482", "number": "3237", "street": "WILD ROSE LOOP", "unit": "", "city": "WEST LINN", "district": "", "region": "", "postcode": "97068", "id": ""}, "geometry": {"type": "Point", "coordinates": [-122.6428381, 45.3626026]}}
{"type": "Feature", "properties": {"hash": "dd926f7663e47142", "number": "", "street": "NO SITUS", "unit": "", "city": "ADDRESS", "district": "", "region": "", "postcode": "0", "id": ""}, "geometry": {"type": "Point", "coordinates": [-122.6463026, 45.362552]}}
{"type": "Feature", "properties": {"hash": "2c900356bf555466", "number": "3522", "street": "CHELAN DR", "unit": "", "city": "WEST LINN", "district": "", "region": "", "postcode": "97068", "id": ""}, "geometry": {"type": "Point", "coordinates": [-122.6456992, 45.3625021]}}
{"type": "Feature", "properties": {"hash": "191ce6a7cad5eb88", "number": "3529", "street": "CHELAN DR", "unit": "", "city": "WEST LINN", "district": "", "region": "", "postcode": "97068", "id": ""}, "geometry": {"type": "Point", "coordinates": [-122.6450149, 45.3625143]}}
{"type": "Feature", "properties": {"hash": "6a076b7bf942b285", "number": "3619", "street": "WILD ROSE LOOP", "unit": "", "city": "WEST LINN", "district": "", "region": "", "postcode": "97068", "id": ""}, "geometry": {"type": "Point", "coordinates": [-122.6415237, 45.3626301]}}
{"type": "Feature", "properties": {"hash": "4eb9fb044c712ef9", "number": "3209", "street": "WILD ROSE LOOP", "unit": "", "city": "WEST LINN", "district": "", "region": "", "postcode": "97068", "id": ""}, "geometry": {"type": "Point", "coordinates": [-122.6424278, 45.3625783]}}
{"type": "Feature", "properties": {"hash": "37b331ef04b7f789", "number": "3233", "street": "WILD ROSE LOOP", "unit": "", "city": "WEST LINN", "district": "", "region": "", "postcode": "97068", "id": ""}, "geometry": {"type": "Point", "coordinates": [-122.6427132, 45.3625622]}}
{"type": "Feature", "properties": {"hash": "4992347c53dee54f", "number": "3250", "street": "WILD ROSE LOOP", "unit": "", "city": "WEST LINN", "district": "", "region": "", "postcode": "97068", "id": ""}, "geometry": {"type": "Point", "coordinates": [-122.643516, 45.3625441]}}
{"type": "Feature", "properties": {"hash": "e65f23ff620f8390", "number": "22085", "street": "CHELAN LOOP", "unit": "", "city": "WEST LINN", "district": "", "region": "", "postcode": "97068", "id": ""}, "geometry": {"type": "Point", "coordinates": [-122.646405, 45.3625068]}}
{"type": "Feature", "properties": {"hash": "9dde78166db4b430", "number": "3404", "street": "CHELAN DR", "unit": "", "city": "WEST LINN", "district": "", "region": "", "postcode": "97068", "id": ""}, "geometry": {"type": "Point", "coordinates": [-122.644668, 45.3623036]}}
{"type": "Feature", "properties": {"hash": "59677fdec7fbfa1f", "number": "", "street": "NO SITUS", "unit": "", "city": "ADDRESS", "district": "", "region": "", "postcode": "0", "id": ""}, "geometry": {"type": "Point", "coordinates": [-122.6606231, 45.3615059]}}
{"type": "Feature", "properties": {"hash": "dcefb8e3491e969e", "number": "3607", "street": "WILD ROSE LOOP", "unit": "", "city": "WEST LINN", "district": "", "region": "", "postcode": "97068", "id": ""}, "geometry": {"type": "Point", "coordinates": [-122.6415789, 45.3625573]}}
{"type": "Feature", "properties": {"hash": "c23dd8248b5975e2", "number": "3248", "street": "WILD ROSE LOOP", "unit": "", "city": "WEST LINN", "district": "", "region": "", "postcode": "97068", "id": ""}, "geometry": {"type": "Point", "coordinates": [-122.6434381, 45.3624828]}}
{"type": "Feature", "properties": {"hash": "1ccf44530edae8a1", "number": "3408", "street": "CHELAN DR", "unit": "", "city": "WEST LINN", "district": "", "region": "", "postcode": "97068", "id": ""}, "geometry": {"type": "Point", "coordinates": [-122.6442473, 45.3622762]}}
{"type": "Feature", "properties": {"hash": "393cba53b8e5023b", "number": "22095", "street": "CHELAN LOOP", "unit": "", "city": "WEST LINN", "district": "", "region": "", "postcode": "97068", "id": ""}, "geometry": {"type": "Point", "coordinates": [-122.6464274, 45.3623975]}}
{"type": "Feature", "properties": {"hash": "6118252b4f431b0d", "number": "3603", "street": "WILD ROSE LOOP", "unit": "", "city": "WEST LINN", "district": "", "region": "", "postcode": "97068", "id": ""}, "geometry": {"type": "Point", "coordinates": [-122.6416254, 45.3624765]}}
{"type": "Feature", "properties": {"hash": "dec80b8158579ac0", "number": "", "street": "NO SITUS", "unit": "", "city": "ADDRESS", "district": "", "region": "", "postcode": "0", "id": ""}, "geometry": {"type": "Point", "coordinates": [-122.6457563, 45.3624001]}}
{"type": "Feature", "properties": {"hash": "b0da6efb10e7fa82", "number": "3523", "street": "CHELAN DR", "unit": "", "city": "WEST LINN", "district": "", "region": "", "postcode": "97068", "id": ""}, "geometry": {"type": "Point", "coordinates": [-122.6451051, 45.362353]}}
{"type": "Feature", "properties": {"hash": "da08b5f17a81a54e", "number": "3244", "street": "WILD ROSE LOOP", "unit": "", "city": "WEST LINN", "district": "", "region": "", "postcode": "97068", "id": ""}, "geometry": {"type": "Point", "coordinates": [-122.6433551, 45.3624245]}}
{"type": "Feature", "properties": {"hash": "6d52eedb3d023eb7", "number": "22105", "street": "CHELAN LOOP", "unit": "", "city": "WEST LINN", "district": "", "region": "", "postcode": "97068", "id": ""}, "geometry": {"type": "Point", "coordinates": [-122.646552, 45.3623334]}}
{"type": "Feature", "properties": {"hash": "99f5cb81960d003f", "number": "", "street": "NO SITUS", "unit": "", "city": "ADDRESS", "district": "", "region": "", "postcode": "0", "id": ""}, "geometry": {"type": "Point", "coordinates": [-122.6475364, 45.3622178]}}
{"type": "Feature", "properties": {"hash": "c6465ad818d2dce5", "number": "3514", "street": "CHELAN DR", "unit": "", "city": "WEST LINN", "district": "", "region": "", "postcode": "97068", "id": ""}, "geometry": {"type": "Point", "coordinates": [-122.6457802, 45.3622662]}}
{"type": "Feature", "properties": {"hash": "ff8dd03cdf73b789", "number": "3242", "street": "WILD ROSE LOOP", "unit": "", "city": "WEST LINN", "district": "", "region": "", "postcode": "97068", "id": ""}, "geometry": {"type": "Point", "coordinates": [-122.6432659, 45.3623642]}}
{"type": "Feature", "properties": {"hash": "7f5c097606c6e897", "number": "", "street": "NO SITUS", "unit": "", "city": "ADDRESS", "district": "", "region": "", "postcode": "0", "id": ""}, "geometry": {"type": "Point", "coordinates": [-122.6471262, 45.3620001]}}
{"type": "Feature", "properties": {"hash": "fd8087273957f238", "number": "22115", "street": "CHELAN LOOP", "unit": "", "city": "WEST LINN", "district": "", "region": "", "postcode": "97068", "id": ""}, "geometry": {"type": "Point", "coordinates": [-122.6467105, 45.3622865]}}
{"type": "Feature", "properties": {"hash": "f1169ad76ae8faa7", "number": "3238", "street": "WILD ROSE LOOP", "unit": "", "city": "WEST LINN", "district": "", "region": "", "postcode": "97068", "id": ""}, "geometry": {"type": "Point", "coordinates": [-122.6431718, 45.362305]}}
{"type": "Feature", "properties": {"hash": "d93489bb7d79af3b", "number": "22951", "street": "BLAND CIR", "unit": "", "city": "WEST LINN", "district": "", "region": "", "postcode": "97068", "id": ""}, "geometry": {"type": "Point", "coordinates": [-122.6551206, 45.3612669]}}
{"type": "Feature", "properties": {"hash": "e43a89c4037d9506", "number": "22125", "street": "CHELAN LOOP", "unit": "", "city": "WEST LINN", "district": "", "region": "", "postcode": "97068", "id": ""}, "geometry": {"type": "Point", "coordinates": [-122.6467989, 45.3622171]}}
{"type": "Feature", "properties": {"hash": "570387754dcb2b37", "number": "3416", "street": "CHELAN DR", "unit": "", "city": "WEST LINN", "district": "", "region": "", "postcode": "97068", "id": ""}, "geometry": {"type": "Point", "coordinates": [-122.6439263, 45.3621845]}}
{"type": "Feature", "properties": {"hash": "6ee8b3eb386d9806", "number": "3236", "street": "WILD ROSE LOOP", "unit": "", "city": "WEST LINN", "district": "", "region": "", "postcode": "97068", "id": ""}, "geometry": {"type": "Point", "coordinates": [-122.6430608, 45.362262]}}
{"type": "Feature", "properties": {"hash": "43f32b6c243825dd", "number": "3200", "street": "WILD ROSE LOOP", "unit": "", "city": "WEST LINN", "district": "", "region": "", "postcode": "97068", "id": ""}, "geometry": {"type": "Point", "coordinates": [-122.6418717, 45.3622884]}}
{"type": "Feature", "properties": {"hash": "3bf23dcd4463aeab", "number": "3506", "street": "CHELAN DR", "unit": "", "city": "WEST LINN", "district": "", "region": "", "postcode": "97068", "id": ""}, "geometry": {"type": "Point", "coordinates": [-122.6459538, 45.3621702]}}
{"type": "Feature", "properties": {"hash": "dcf74b3772f8f481", "number": "", "street": "NO SITUS", "unit": "", "city": "ADDRESS", "district": "", "region": "", "postcode": "0", "id": ""}, "geometry": {"type": "Point", "coordinates": [-122.6449638, 45.3621999]}}
{"type": "Feature", "properties": {"hash": "adf78dc912a4f021", "number": "22135", "street": "CHELAN LOOP", "unit": "", "city": "WEST LINN", "district": "", "region": "", "postcode": "97068", "id": ""}, "geometry": {"type": "Point", "coordinates": [-122.6469081, 45.36217]}}
{"type": "Feature", "properties": {"hash": "d603ffe6d77f4c3f", "number": "3206", "street": "WILD ROSE LOOP", "unit": "", "city": "WEST LINN", "district": "", "region": "", "postcode": "97068", "id": ""}, "geometry": {"type": "Point", "coordinates": [-122.6420697, 45.3622348]}}
{"type": "Feature", "properties": {"hash": "eff2ec5d49bb808c", "number": "3234", "street": "WILD ROSE LOOP", "unit": "", "city": "WEST LINN", "district": "", "region": "", "postcode": "97068", "id": ""}, "geometry": {"type": "Point", "coordinates": [-122.6429426, 45.3622304]}}
{"type": "Feature", "properties": {"hash": "f5a8bdf66959a903", "number": "3515", "street": "CHELAN DR", "unit": "", "city": "WEST LINN", "district": "", "region": "", "postcode": "97068", "id": ""}, "geometry": {"type": "Point", "coordinates": [-122.6452481, 45.3621084]}}
{"type": "Feature", "properties": {"hash": "3f50c04989f70c97", "number": "3230", "street": "WILD ROSE LOOP", "unit": "", "city": "WEST LINN", "district": "", "region": "", "postcode": "97068", "id": ""}, "geometry": {"type": "Point", "coordinates": [-122.642823, 45.3622033]}}
{"type": "Feature", "properties": {"hash": "70d48c7b9398d3fa", "number": "3224", "street": "WILD ROSE LOOP", "unit": "", "city": "WEST LINN", "district": "", "region": "", "postcode": "97068", "id": ""}, "geometry": {"type": "Point", "coordinates": [-122.6427014, 45.3621801]}}
